start=new Date('2021-08-25T00:00:00.000Z').valueOf();
sats=[{"PERIAPSIS":"545.762","APOAPSIS":"548.705","TLE_LINE2":"2 48480  53.0552  83.8306 0002125  98.3977 261.7253 15.06393509 16472","EPOCH":"2021-08-24T20:57:18.410400","PERIOD":"95.593","ELEMENT_SET_NO":"999","RA_OF_ASC_NODE":"83.8306","OBJECT_NAME":"STARLINK-2690","MEAN_MOTION_DDOT":"0.0000000000000","COUNTRY_CODE":"US","DECAY_DATE":null,"MEAN_MOTION":"15.06393509","BSTAR":"-0.00004082000000","SITE":"AFETR","REV_AT_EPOCH":"1647","RCS_SIZE":"LARGE","OBJECT_TYPE":"PAYLOAD","ECCENTRICITY":"0.00021250","OBJECT_ID":"2021-040BE","FILE":"3102580","NORAD_CAT_ID":"48480","MEAN_MOTION_DOT":"-0.00000890","CLASSIFICATION_TYPE":"U","GP_ID":"183388422","SEMIMAJOR_AXIS":"6925.368","INCLINATION":"53.0552","TIME_SYSTEM":"UTC","CENTER_NAME":"EARTH","LAUNCH_DATE":"2021-05-09","MEAN_ANOMALY":"261.7253","ARG_OF_PERICENTER":"98.3977","TLE_LINE1":"1 48480U 21040BE  21236.87312975 -.00000890  00000-0 -40820-4 0  9994","REF_FRAME":"TEME","MEAN_ELEMENT_THEORY":"SGP4","EPHEMERIS_TYPE":"0"},{"TLE_LINE2":"2 48481  53.0522  83.7797 0002409 103.2944 256.8314 15.06402736 16474","APOAPSIS":"548.873","PERIAPSIS":"545.537","RA_OF_ASC_NODE":"83.7797","PERIOD":"95.592","ELEMENT_SET_NO":"999","EPOCH":"2021-08-24T21:17:09.653856","OBJECT_NAME":"STARLINK-2706","MEAN_MOTION_DDOT":"0.0000000000000","COUNTRY_CODE":"US","OBJECT_TYPE":"PAYLOAD","ECCENTRICITY":"0.00024090","REV_AT_EPOCH":"1647","RCS_SIZE":"LARGE","SITE":"AFETR","BSTAR":"0.00006251400000","MEAN_MOTION":"15.06402736","DECAY_DATE":null,"INCLINATION":"53.0522","TIME_SYSTEM":"UTC","GP_ID":"183387889","SEMIMAJOR_AXIS":"6925.340","CLASSIFICATION_TYPE":"U","NORAD_CAT_ID":"48481","MEAN_MOTION_DOT":"0.00000649","FILE":"3102580","OBJECT_ID":"2021-040BF","REF_FRAME":"TEME","TLE_LINE1":"1 48481U 21040BF  21236.88691729  .00000649  00000-0  62514-4 0  9997","ARG_OF_PERICENTER":"103.2944","MEAN_ANOMALY":"256.8314","CENTER_NAME":"EARTH","LAUNCH_DATE":"2021-05-09","EPHEMERIS_TYPE":"0","MEAN_ELEMENT_THEORY":"SGP4"},{"TLE_LINE1":"1 48482U 21040BG  21236.88050494 -.00000907  00000-0 -42007-4 0  9990","ARG_OF_PERICENTER":"102.6456","REF_FRAME":"TEME","LAUNCH_DATE":"2021-05-09","CENTER_NAME":"EARTH","MEAN_ANOMALY":"257.4772","MEAN_ELEMENT_THEORY":"SGP4","EPHEMERIS_TYPE":"0","SITE":"AFETR","BSTAR":"-0.00004200700000","ECCENTRICITY":"0.00021340","OBJECT_TYPE":"PAYLOAD","REV_AT_EPOCH":"1647","RCS_SIZE":"LARGE","MEAN_MOTION":"15.06393735","DECAY_DATE":null,"SEMIMAJOR_AXIS":"6925.368","GP_ID":"183387984","CLASSIFICATION_TYPE":"U","INCLINATION":"53.0554","TIME_SYSTEM":"UTC","FILE":"3102580","OBJECT_ID":"2021-040BG","NORAD_CAT_ID":"48482","MEAN_MOTION_DOT":"-0.00000907","OBJECT_NAME":"STARLINK-2525","MEAN_MOTION_DDOT":"0.0000000000000","COUNTRY_CODE":"US","TLE_LINE2":"2 48482  53.0554  83.8021 0002134 102.6456 257.4772 15.06393735 16470","APOAPSIS":"548.711","PERIAPSIS":"545.755","EPOCH":"2021-08-24T21:07:55.626816","PERIOD":"95.593","ELEMENT_SET_NO":"999","RA_OF_ASC_NODE":"83.8021"},{"TLE_LINE2":"2 48483  53.0556  83.8156 0002264  97.3547 262.7699 15.06392540 16477","APOAPSIS":"548.804","PERIAPSIS":"545.669","RA_OF_ASC_NODE":"83.8156","ELEMENT_SET_NO":"999","PERIOD":"95.593","EPOCH":"2021-08-24T21:02:37.104576","MEAN_MOTION_DDOT":"0.0000000000000","OBJECT_NAME":"STARLINK-2531","COUNTRY_CODE":"US","OBJECT_TYPE":"PAYLOAD","ECCENTRICITY":"0.00022640","REV_AT_EPOCH":"1647","RCS_SIZE":"LARGE","SITE":"AFETR","BSTAR":"-0.00007160700000","MEAN_MOTION":"15.06392540","DECAY_DATE":null,"INCLINATION":"53.0556","TIME_SYSTEM":"UTC","GP_ID":"183388517","SEMIMAJOR_AXIS":"6925.371","CLASSIFICATION_TYPE":"U","NORAD_CAT_ID":"48483","MEAN_MOTION_DOT":"-0.00001348","FILE":"3102580","OBJECT_ID":"2021-040BH","REF_FRAME":"TEME","TLE_LINE1":"1 48483U 21040BH  21236.87681834 -.00001348  00000-0 -71607-4 0  9996","ARG_OF_PERICENTER":"97.3547","MEAN_ANOMALY":"262.7699","LAUNCH_DATE":"2021-05-09","CENTER_NAME":"EARTH","EPHEMERIS_TYPE":"0","MEAN_ELEMENT_THEORY":"SGP4"},{"ARG_OF_PERICENTER":"86.9629","TLE_LINE1":"1 48484U 21040BJ  21236.85375488 -.00001220  00000-0 -63036-4 0  9996","REF_FRAME":"TEME","CENTER_NAME":"EARTH","LAUNCH_DATE":"2021-05-09","MEAN_ANOMALY":"273.1630","MEAN_ELEMENT_THEORY":"SGP4","EPHEMERIS_TYPE":"0","BSTAR":"-0.00006303600000","SITE":"AFETR","REV_AT_EPOCH":"1647","RCS_SIZE":"LARGE","ECCENTRICITY":"0.00023610","OBJECT_TYPE":"PAYLOAD","DECAY_DATE":null,"MEAN_MOTION":"15.06391991","CLASSIFICATION_TYPE":"U","GP_ID":"183388079","SEMIMAJOR_AXIS":"6925.373","TIME_SYSTEM":"UTC","INCLINATION":"53.0550","OBJECT_ID":"2021-040BJ","FILE":"3102580","NORAD_CAT_ID":"48484","MEAN_MOTION_DOT":"-0.00001220","MEAN_MOTION_DDOT":"0.0000000000000","OBJECT_NAME":"STARLINK-2696","COUNTRY_CODE":"US","APOAPSIS":"548.873","TLE_LINE2":"2 48484  53.0550  83.9170 0002361  86.9629 273.1630 15.06391991 16472","PERIAPSIS":"545.603","PERIOD":"95.593","EPOCH":"2021-08-24T20:29:24.421632","ELEMENT_SET_NO":"999","RA_OF_ASC_NODE":"83.9170"},{"EPHEMERIS_TYPE":"0","MEAN_ELEMENT_THEORY":"SGP4","MEAN_ANOMALY":"257.3862","LAUNCH_DATE":"2021-05-09","CENTER_NAME":"EARTH","REF_FRAME":"TEME","ARG_OF_PERICENTER":"102.7377","TLE_LINE1":"1 48485U 21040BK  21236.88419003 -.00001109  00000-0 -55541-4 0  9990","NORAD_CAT_ID":"48485","MEAN_MOTION_DOT":"-0.00001109","OBJECT_ID":"2021-040BK","FILE":"3102580","INCLINATION":"53.0553","TIME_SYSTEM":"UTC","CLASSIFICATION_TYPE":"U","SEMIMAJOR_AXIS":"6925.369","GP_ID":"183388233","DECAY_DATE":null,"MEAN_MOTION":"15.06393194","RCS_SIZE":"LARGE","REV_AT_EPOCH":"1647","OBJECT_TYPE":"PAYLOAD","ECCENTRICITY":"0.00022350","BSTAR":"-0.00005554100000","SITE":"AFETR","COUNTRY_CODE":"US","OBJECT_NAME":"STARLINK-2500","MEAN_MOTION_DDOT":"0.0000000000000","RA_OF_ASC_NODE":"83.7882","ELEMENT_SET_NO":"999","PERIOD":"95.593","EPOCH":"2021-08-24T21:13:14.018592","PERIAPSIS":"545.687","APOAPSIS":"548.782","TLE_LINE2":"2 48485  53.0553  83.7882 0002235 102.7377 257.3862 15.06393194 16479"},{"MEAN_ELEMENT_THEORY":"SGP4","EPHEMERIS_TYPE":"0","CENTER_NAME":"EARTH","LAUNCH_DATE":"2021-05-09","MEAN_ANOMALY":"259.1945","TLE_LINE1":"1 48486U 21040BL  21236.88786419  .00000813  00000-0  73496-4 0  9997","ARG_OF_PERICENTER":"100.9305","REF_FRAME":"TEME","FILE":"3102580","OBJECT_ID":"2021-040BL","NORAD_CAT_ID":"48486","MEAN_MOTION_DOT":"0.00000813","GP_ID":"183388328","SEMIMAJOR_AXIS":"6925.347","CLASSIFICATION_TYPE":"U","TIME_SYSTEM":"UTC","INCLINATION":"53.0535","MEAN_MOTION":"15.06400601","DECAY_DATE":null,"SITE":"AFETR","BSTAR":"0.00007349600000","OBJECT_TYPE":"PAYLOAD","ECCENTRICITY":"0.00023140","RCS_SIZE":"LARGE","REV_AT_EPOCH":"1647","COUNTRY_CODE":"US","MEAN_MOTION_DDOT":"0.0000000000000","OBJECT_NAME":"STARLINK-2496","ELEMENT_SET_NO":"999","PERIOD":"95.592","EPOCH":"2021-08-24T21:18:31.466016","RA_OF_ASC_NODE":"83.7779","PERIAPSIS":"545.609","TLE_LINE2":"2 48486  53.0535  83.7779 0002314 100.9305 259.1945 15.06400601 16478","APOAPSIS":"548.814"},{"RA_OF_ASC_NODE":"84.0515","EPOCH":"2021-08-24T19:48:17.429472","PERIOD":"95.592","ELEMENT_SET_NO":"999","PERIAPSIS":"545.667","APOAPSIS":"548.749","TLE_LINE2":"2 48487  53.0562  84.0515 0002225  93.3831 266.7413 15.06401697 16471","COUNTRY_CODE":"US","OBJECT_NAME":"STARLINK-2494","MEAN_MOTION_DDOT":"0.0000000000000","MEAN_MOTION_DOT":"0.00000595","NORAD_CAT_ID":"48487","OBJECT_ID":"2021-040BM","FILE":"3102580","TIME_SYSTEM":"UTC","INCLINATION":"53.0562","CLASSIFICATION_TYPE":"U","SEMIMAJOR_AXIS":"6925.343","GP_ID":"183388174","DECAY_DATE":null,"MEAN_MOTION":"15.06401697","REV_AT_EPOCH":"1647","RCS_SIZE":"LARGE","ECCENTRICITY":"0.00022250","OBJECT_TYPE":"PAYLOAD","BSTAR":"0.00005883400000","SITE":"AFETR","EPHEMERIS_TYPE":"0","MEAN_ELEMENT_THEORY":"SGP4","MEAN_ANOMALY":"266.7413","LAUNCH_DATE":"2021-05-09","CENTER_NAME":"EARTH","REF_FRAME":"TEME","ARG_OF_PERICENTER":"93.3831","TLE_LINE1":"1 48487U 21040BM  21236.82520173  .00000595  00000-0  58834-4 0  9991"},{"GP_ID":"183388241","SEMIMAJOR_AXIS":"6925.340","CLASSIFICATION_TYPE":"U","INCLINATION":"53.0677","TIME_SYSTEM":"UTC","FILE":"3102580","OBJECT_ID":"2021-041A","NORAD_CAT_ID":"48553","MEAN_MOTION_DOT":"-0.00003254","SITE":"AFETR","BSTAR":"-0.00019966000000","ECCENTRICITY":"0.00013520","OBJECT_TYPE":"PAYLOAD","REV_AT_EPOCH":"1531","RCS_SIZE":"LARGE","MEAN_MOTION":"15.06402732","DECAY_DATE":null,"MEAN_ELEMENT_THEORY":"SGP4","EPHEMERIS_TYPE":"0","TLE_LINE1":"1 48553U 21041A   21236.73582311 -.00003254  00000-0 -19966-3 0  9997","ARG_OF_PERICENTER":"127.2026","REF_FRAME":"TEME","CENTER_NAME":"EARTH","LAUNCH_DATE":"2021-05-15","MEAN_ANOMALY":"232.9087","EPOCH":"2021-08-24T17:39:35.116704","PERIOD":"95.592","ELEMENT_SET_NO":"999","RA_OF_ASC_NODE":"14.4098","TLE_LINE2":"2 48553  53.0677  14.4098 0001352 127.2026 232.9087 15.06402732 15313","APOAPSIS":"548.141","PERIAPSIS":"546.269","COUNTRY_CODE":"US","MEAN_MOTION_DDOT":"0.0000000000000","OBJECT_NAME":"STARLINK-2063"},{"MEAN_MOTION_DDOT":"0.0000000000000","OBJECT_NAME":"STARLINK-2139","COUNTRY_CODE":"US","TLE_LINE2":"2 48554  53.0619  13.8122 0001629 145.7244 214.3851 15.06410543 15339","APOAPSIS":"548.309","PERIAPSIS":"546.053","RA_OF_ASC_NODE":"13.8122","ELEMENT_SET_NO":"999","PERIOD":"95.591","EPOCH":"2021-08-24T21:01:16.761216","REF_FRAME":"TEME","TLE_LINE1":"1 48554U 21041B   21236.87588844 -.00003697  00000-0 -22932-3 0  9998","ARG_OF_PERICENTER":"145.7244","MEAN_ANOMALY":"214.3851","CENTER_NAME":"EARTH","LAUNCH_DATE":"2021-05-15","EPHEMERIS_TYPE":"0","MEAN_ELEMENT_THEORY":"SGP4","ECCENTRICITY":"0.00016290","OBJECT_TYPE":"PAYLOAD","RCS_SIZE":"LARGE","REV_AT_EPOCH":"1533","SITE":"AFETR","BSTAR":"-0.00022932000000","MEAN_MOTION":"15.06410543","DECAY_DATE":null,"INCLINATION":"53.0619","TIME_SYSTEM":"UTC","SEMIMAJOR_AXIS":"6925.316","GP_ID":"183388336","CLASSIFICATION_TYPE":"U","NORAD_CAT_ID":"48554","MEAN_MOTION_DOT":"-0.00003697","FILE":"3102580","OBJECT_ID":"2021-041B"}];
